[{"OBJECT_NAME":"STARLINK-3375","OBJECT_ID":"2022-005L","EPOCH":"2026-03-09T21:43:23.279520","MEAN_MOTION":15.08841424,"ECCENTRICITY":0.00015346,"INCLINATION":53.2172,"RA_OF_ASC_NODE":288.1504,"ARG_OF_PERICENTER":98.5978,"MEAN_ANOMALY":261.5188,"EPHEMERIS_TYPE":0,"CLASSIFICATION_TYPE":"U","NORAD_CAT_ID":51114,"ELEMENT_SET_NO":999,"REV_AT_EPOCH":22891,"BSTAR":-9.6287314e-5,"MEAN_MOTION_DOT":-1.82e-5,"MEAN_MOTION_DDOT":0},{"OBJECT_NAME":"FENGYUN 1C DEB","OBJECT_ID":"1999-025AKL","EPOCH":"2026-03-09T14:47:46.011264","MEAN_MOTION":14.88806868,"ECCENTRICITY":0.0088849,"INCLINATION":98.9015,"RA_OF_ASC_NODE":300.2677,"ARG_OF_PERICENTER":245.5096,"MEAN_ANOMALY":169.9787,"EPHEMERIS_TYPE":0,"CLASSIFICATION_TYPE":"U","NORAD_CAT_ID":30546,"ELEMENT_SET_NO":999,"REV_AT_EPOCH":1749,"BSTAR":0.00087367,"MEAN_MOTION_DOT":8.737e-5,"MEAN_MOTION_DDOT":0}]
